[{"OBJECT_NAME":"NEXSAT-1","OBJECT_ID":"2024-024E","EPOCH":"2026-03-09T22:47:24.778176","MEAN_MOTION":15.32166372,"ECCENTRICITY":0.00099795,"INCLINATION":97.3124,"RA_OF_ASC_NODE":144.1918,"ARG_OF_PERICENTER":108.5709,"MEAN_ANOMALY":251.6617,"EPHEMERIS_TYPE":0,"CLASSIFICATION_TYPE":"U","NORAD_CAT_ID":58921,"ELEMENT_SET_NO":999,"REV_AT_EPOCH":11669,"BSTAR":0.00031433612,"MEAN_MOTION_DOT":9.702e-5,"MEAN_MOTION_DDOT":0},{"OBJECT_NAME":"STARLINK-35602","OBJECT_ID":"2025-257Z","EPOCH":"2026-03-09T16:35:59.042976","MEAN_MOTION":15.30189236,"ECCENTRICITY":9.482e-5,"INCLINATION":53.158,"RA_OF_ASC_NODE":217.0219,"ARG_OF_PERICENTER":66.8442,"MEAN_ANOMALY":293.2658,"EPHEMERIS_TYPE":0,"CLASSIFICATION_TYPE":"U","NORAD_CAT_ID":66403,"ELEMENT_SET_NO":999,"REV_AT_EPOCH":1973,"BSTAR":0.0012900137,"MEAN_MOTION_DOT":0.0003803,"MEAN_MOTION_DDOT":0}]
